[{"OBJECT_NAME":"HST","OBJECT_ID":"1990-037B","EPOCH":"2026-03-09T03:50:04.164288","MEAN_MOTION":15.29473555,"ECCENTRICITY":0.00018372,"INCLINATION":28.4717,"RA_OF_ASC_NODE":43.6133,"ARG_OF_PERICENTER":120.9992,"MEAN_ANOMALY":239.0785,"EPHEMERIS_TYPE":0,"CLASSIFICATION_TYPE":"U","NORAD_CAT_ID":20580,"ELEMENT_SET_NO":999,"REV_AT_EPOCH":77323,"BSTAR":0.0003002261,"MEAN_MOTION_DOT":9.063e-5,"MEAN_MOTION_DDOT":0},{"OBJECT_NAME":"STARLINK-35217","OBJECT_ID":"2025-210F","EPOCH":"2026-03-09T22:15:28.405440","MEAN_MOTION":15.302208,"ECCENTRICITY":0.00013291,"INCLINATION":53.1599,"RA_OF_ASC_NODE":306.2446,"ARG_OF_PERICENTER":80.9871,"MEAN_ANOMALY":279.128,"EPHEMERIS_TYPE":0,"CLASSIFICATION_TYPE":"U","NORAD_CAT_ID":65627,"ELEMENT_SET_NO":999,"REV_AT_EPOCH":2776,"BSTAR":0.00071735138,"MEAN_MOTION_DOT":0.0002096,"MEAN_MOTION_DDOT":0}]
